QIANFAN-27              
1 61560U 24185J   25213.60675623  .00000365  00000+0  14389-3 0  9997
2 61560  88.9789  92.5714 0009169  21.5500 338.6078 14.27122336 51175
QIANFAN-28              
1 61561U 24185K   25213.57680297  .00000699  00000+0  27763-3 0  9997
2 61561  88.9807  92.5681 0008244  24.1608 335.9972 14.27681807 51177
QIANFAN-29              
1 61562U 24185L   25213.57122286  .00000147  00000+0  20907-3 0  9998
2 61562  88.9796  95.0859 0012188  76.8229 283.4281 13.50955213 49813
QIANFAN-30              
1 61563U 24185M   25213.51931246  .00000133  00000+0  19108-3 0  9993
2 61563  88.9800  94.5679 0009591  65.0726 295.1421 13.49926989 50094
QIANFAN-31              
1 61564U 24185N   25213.45891313  .00000088  00000+0  10463-3 0  9991
2 61564  88.9782  94.5873 0009272  63.6914 296.5192 13.57904537 50071
QIANFAN-32              
1 61565U 24185P   25213.56174807  .00000087  00000+0  11706-3 0  9996
2 61565  88.9844  94.6574 0011518  85.5559 274.6907 13.50683188 50063
